GLOBALSTAR M035         
1 25851U 99037A   25042.96681498 -.00000042  00000+0  82120-3 0  9995
2 25851  51.9988 334.2212 0013754 136.7150 302.4796 11.04535746 82426
GLOBALSTAR M032         
1 25852U 99037B   25042.56443030 -.00000046  00000+0  65871-3 0  9998
2 25852  51.9936 168.9791 0010268 318.7602  41.2421 11.19057009120721
GLOBALSTAR M051         
1 25853U 99037C   25042.91158451 -.00000042  00000+0  74730-3 0  9998
2 25853  51.9832 343.1060 0001152   4.0655 356.0165 11.42202057118076
GLOBALSTAR M030         
1 25854U 99037D   25042.52204259 -.00000122  00000+0 -10029-2 0  9994
2 25854  51.9864 158.1391 0004216 173.5335 186.5536 11.55103116135521
GLOBALSTAR M048         
1 25872U 99041A   25042.94245897 -.00000028  00000+0  11289-2 0  9991
2 25872  51.9355 273.2259 0012986 332.5672 128.0832 11.33854574110779
GLOBALSTAR M026         
1 25873U 99041B   25042.54993976 -.00000028  00000+0  13320-2 0  9994
2 25873  52.0008  94.4292 0001610  68.1674  85.1884 11.06828089134579
GLOBALSTAR M043         
1 25874U 99041C   25042.87965354 -.00000106  00000+0 -11194-2 0  9995
2 25874  51.9432  16.0208 0013400  99.0613 297.8864 11.25689633108765
GLOBALSTAR M028         
1 25875U 99041D   25042.83174811 -.00000094  00000+0  39240-4 0  9991
2 25875  51.9603 206.8508 0063830 158.4415 201.9154 12.50577002174496
